OBJECT_NAME,OBJECT_ID,EPOCH,MEAN_MOTION,ECCENTRICITY,INCLINATION,RA_OF_ASC_NODE,ARG_OF_PERICENTER,MEAN_ANOMALY,EPHEMERIS_TYPE,CLASSIFICATION_TYPE,NORAD_CAT_ID,ELEMENT_SET_NO,REV_AT_EPOCH,BSTAR,MEAN_MOTION_DOT,MEAN_MOTION_DDOT
ONEWEB-0165,2021-031Z,2026-07-02T17:30:05.319936,13.14503231,.0002297,87.8975,286.6142,108.0302,252.1078,0,U,48233,999,25040,.62662095E-3,.245E-5,0
ONEWEB-0199,2021-031AA,2026-07-02T17:07:13.890144,13.14501800,.00018387,87.8981,286.6041,99.2267,260.9071,0,U,48234,999,25030,-.30071215E-3,-.99E-6,0
ONEWEB-0203,2021-031AB,2026-07-02T16:53:30.810048,13.14501126,.00019107,87.8979,286.6092,105.5425,254.5916,0,U,48235,999,25031,-.60762239E-3,-.212E-5,0
ONEWEB-0197,2021-031AC,2026-07-02T19:56:00.458304,13.14501018,.00020872,87.8969,286.5685,93.0399,267.0969,0,U,48236,999,25024,.37450844E-4,.27E-6,0
ONEWEB-0194,2021-031AD,2026-07-02T19:26:32.444736,13.14503144,.00017503,87.8974,286.5955,103.7101,256.4224,0,U,48237,999,25041,.80628145E-3,.312E-5,0
ONEWEB-0193,2021-031AE,2026-07-02T19:49:22.011744,13.14501504,.00015596,87.8971,286.5826,105.9073,254.2228,0,U,48238,999,25036,.6662169E-3,.26E-5,0
ONEWEB-0191,2021-031AF,2026-07-02T20:05:23.053632,13.14505855,.00019935,87.8977,286.5799,95.0727,265.0630,0,U,48239,999,25022,.84139575E-4,.44E-6,0
ONEWEB-0195,2021-031AG,2026-07-02T17:42:38.426400,13.14503020,.00023321,87.8977,286.6005,106.4647,253.6739,0,U,48240,999,25019,.65815405E-3,.257E-5,0
ONEWEB-0201,2021-031AH,2026-07-02T17:25:41.743776,13.14501454,.00022015,87.8971,286.6176,94.0274,266.1107,0,U,48241,999,25042,.28936787E-3,.12E-5,0
ONEWEB-0207,2021-031AJ,2026-07-02T16:56:57.007968,13.14504133,.00021707,87.8980,286.6076,94.1998,265.9380,0,U,48242,999,25033,-.60155567E-3,-.21E-5,0
ONEWEB-0208,2021-031AK,2026-07-02T20:09:54.562176,13.14501360,.00022036,87.8977,286.5866,107.5624,252.5746,0,U,48243,999,25036,-.21296296E-3,-.66E-6,0
ONEWEB-0200,2021-031AL,2026-07-02T17:27:47.390976,13.14502096,.00020854,87.8982,286.5970,101.3246,258.8118,0,U,48244,999,25027,.46361991E-3,.185E-5,0
ONEWEB-0217,2021-031AM,2026-07-02T12:21:47.793600,13.14502479,.0002271,87.8984,286.6434,107.9113,252.2265,0,U,48245,999,25019,.76462E-3,.296E-5,0
PLEIADES NEO 3,2021-034A,2026-07-03T12:41:00.165696,14.81673283,.00013732,97.8940,259.0602,88.0288,272.1082,0,U,48268,999,28007,-.3878296E-5,-.83E-6,0
LEMUR-2-AMANDA-SVANTE,2021-034B,2026-07-02T16:18:17.024544,15.35250832,.00038134,97.5757,262.3826,170.9854,189.1458,0,U,48269,999,28343,.9280397E-3,.3178E-3,0
AII-BRAVO,2021-034C,2026-07-02T20:39:17.913600,15.03593974,.00052429,97.5602,238.4158,194.3422,165.7656,0,U,48270,999,28197,.34704623E-3,.4685E-4,0
TYVAK-182A,2021-034D,2026-07-02T14:38:01.161888,15.06307945,.0004075,97.5712,242.2601,277.5430,82.5334,0,U,48271,999,28215,.36674778E-3,.533E-4,0
NORSAT 3,2021-034E,2026-07-03T16:39:49.273056,15.05421185,.00060093,97.5306,241.5684,237.4679,122.5968,0,U,48272,999,28232,.44649464E-3,.6351E-4,0
LEMUR-2-SPECIAL-K,2021-034F,2026-07-02T16:03:34.204896,15.69627128,.00054385,97.5645,271.7015,222.2477,137.8366,0,U,48273,999,28411,.16759224E-2,.20253E-2,0
CSS (TIANHE),2021-035A,2026-07-03T05:28:28.025760,15.57904594,.00028803,41.4672,224.3616,262.1202,97.9309,0,U,48274,999,29621,.10677817E-3,.7882E-4,0
STARLINK-2567,2021-036A,2026-07-02T20:16:37.740864,15.31700021,.00014037,53.1601,235.1636,97.2929,262.8232,0,U,48276,999,28638,.12223748E-4,.14E-6,0
STARLINK-2569,2021-036B,2026-07-02T18:11:45.077568,15.33278070,.00017747,53.1240,197.4669,15.4686,344.6369,0,U,48277,999,28690,.11725998E-2,.3806E-3,0
STARLINK-2543,2021-036C,2026-07-02T08:29:08.873088,15.31703034,.0001207,53.1594,210.9116,86.9670,273.1469,0,U,48278,999,28668,.23491E-4,.364E-5,0
STARLINK-2565,2021-036E,2026-07-02T10:30:58.567104,15.31717253,.0000931,53.1592,287.3145,86.4484,273.6624,0,U,48280,999,28561,.1495E-3,.4279E-4,0
STARLINK-2558,2021-036G,2026-07-02T12:15:44.536896,15.31717874,.0001417,53.1598,261.2243,97.3542,262.7621,0,U,48282,999,28600,.72818E-4,.1896E-4,0
STARLINK-2516,2021-036H,2026-07-02T18:18:09.035712,15.31700756,.00012537,53.1572,259.9897,76.9953,283.1189,0,U,48283,999,28604,-.23647887E-3,-.7696E-4,0
STARLINK-2564,2021-036J,2026-07-02T14:43:30.661248,15.31677362,.0001335,53.1583,261.1943,97.2249,262.8905,0,U,48284,999,28600,-.14070369E-3,-.4726E-4,0
STARLINK-2547,2021-036L,2026-07-02T11:55:36.482592,15.31723217,.0001319,53.1589,261.3033,84.0137,276.1014,0,U,48286,999,28599,.10972E-3,.3043E-4,0
STARLINK-2566,2021-036M,2026-07-02T14:24:12.270528,15.31725652,.00013162,53.1597,263.1832,78.5706,281.5443,0,U,48287,999,28597,.14883924E-3,.426E-4,0
STARLINK-2545,2021-036P,2026-07-02T12:15:18.577152,15.31722533,.0001347,53.1585,261.4746,86.8062,273.3094,0,U,48289,999,28599,.12762E-3,.36E-4,0
STARLINK-2555,2021-036R,2026-07-02T12:30:06.604992,15.31723336,.0001093,53.1577,263.5562,88.5947,271.5179,0,U,48291,999,28596,.16446E-3,.4745E-4,0
STARLINK-2542,2021-036S,2026-07-02T14:03:06.362784,15.31701381,.0001354,53.1595,260.6918,92.6717,267.4440,0,U,48292,999,28601,-.1137E-4,-.718E-5,0
STARLINK-2550,2021-036T,2026-07-02T11:15:19.911744,15.31722992,.0001308,53.1598,261.3912,80.3062,279.8087,0,U,48293,999,28599,.17925E-3,.5205E-4,0
STARLINK-2533,2021-036U,2026-07-02T14:09:49.970880,15.31720704,.0001426,53.1590,260.7765,83.7559,276.3605,0,U,48294,999,28601,.1747E-3,.5063E-4,0
STARLINK-2535,2021-036V,2026-07-02T14:29:59.144064,15.31722984,.00012915,53.1586,260.8780,100.0067,260.1081,0,U,48295,999,28601,.1882012E-3,.5483E-4,0
STARLINK-2559,2021-036Y,2026-07-02T11:32:46.591584,15.36918858,.0005076,53.1568,260.2442,342.5737,17.5092,0,U,48298,999,28601,.11151E-2,.4069E-3,0
STARLINK-2557,2021-036Z,2026-07-02T12:09:00.844128,15.31722917,.0000955,53.1571,261.1511,64.2371,295.8729,0,U,48299,999,28600,.17746E-3,.515E-4,0
STARLINK-2538,2021-036AA,2026-07-02T10:52:53.188896,15.31727448,.0001114,53.1592,274.2212,86.5700,273.5429,0,U,48300,999,28581,.28924E-3,.8628E-4,0
STARLINK-2537,2021-036AB,2026-07-02T10:06:29.259936,15.31725894,.0001308,53.1591,277.3857,103.1577,256.9570,0,U,48301,999,28575,.21253E-3,.6241E-4,0
STARLINK-2530,2021-036AD,2026-07-02T15:54:56.764800,15.31727582,.0001121,53.1590,273.5288,82.6768,277.4361,0,U,48303,999,28583,.12192765E-3,.3423E-4,0
STARLINK-2524,2021-036AE,2026-07-02T15:51:43.166592,15.31723666,.00012538,53.1581,283.9957,74.7614,285.3526,0,U,48304,999,28567,.27113858E-3,.8064E-4,0
STARLINK-2519,2021-036AF,2026-07-02T13:57:44.286048,15.31717132,.0001195,53.1605,284.9505,96.4430,263.6707,0,U,48305,999,28565,.66232E-4,.1692E-4,0
STARLINK-2523,2021-036AG,2026-07-02T19:06:22.055904,15.31723954,.00010723,53.1596,283.4853,102.3310,257.7811,0,U,48306,999,28569,.18513825E-3,.5388E-4,0
STARLINK-2517,2021-036AK,2026-07-02T14:54:39.380832,15.31693833,.00015699,53.1563,274.1653,95.5337,264.5844,0,U,48309,999,28582,.51923443E-3,.15778E-3,0
STARLINK-2536,2021-036AL,2026-07-02T16:09:54.795168,15.31722948,.00012243,53.1592,276.4561,89.4201,270.6940,0,U,48310,999,28579,.19199581E-3,.5601E-4,0
STARLINK-2534,2021-036AM,2026-07-02T11:06:24.095232,15.31728748,.0001047,53.1588,274.6780,80.4584,279.6536,0,U,48311,999,28580,.7298E-5,-.138E-5,0
STARLINK-2061,2021-036AN,2026-07-02T15:07:58.403712,15.31723410,.00014238,53.1591,273.6458,79.4741,280.6420,0,U,48312,999,28583,.25615827E-3,.7598E-4,0
STARLINK-2549,2021-036AQ,2026-07-02T16:08:50.971488,15.31723063,.00012181,53.1592,275.9235,95.4427,264.6714,0,U,48314,999,28579,.2839419E-3,.8462E-4,0
STARLINK-2506,2021-036AR,2026-07-02T16:31:59.637216,15.31724343,.0001235,53.1599,283.8920,82.9056,277.2086,0,U,48315,999,28567,.1658193E-3,.4788E-4,0
STARLINK-2507,2021-036AS,2026-07-02T16:25:16.891392,15.31722801,.0001199,53.1599,283.9043,74.3048,285.8085,0,U,48316,999,28567,.18688541E-3,.5442E-4,0
STARLINK-2513,2021-036AT,2026-07-02T12:33:34.098912,15.31720616,.0001009,53.1581,273.9095,68.7816,291.3293,0,U,48317,999,28581,.17491E-3,.507E-4,0
STARLINK-2509,2021-036AU,2026-07-02T13:18:23.773248,15.31732034,.0000776,53.1587,287.4495,78.2545,281.8544,0,U,48318,999,28562,-.29238E-4,-.1273E-4,0
STARLINK-2512,2021-036AV,2026-07-02T13:04:50.134944,15.31718758,.0001032,53.1575,286.7676,86.4146,273.6973,0,U,48319,999,28563,.14318E-3,.4083E-4,0
STARLINK-2029,2021-036AW,2026-07-02T10:37:44.096736,15.31717439,.0001144,53.1609,287.5518,94.2941,265.8191,0,U,48320,999,28561,.98828E-4,.2704E-4,0
STARLINK-2457,2021-036AX,2026-07-02T15:52:37.254720,15.31720680,.00012962,53.1577,286.1585,79.0809,281.0338,0,U,48321,999,28565,.23652837E-3,.6986E-4,0
STARLINK-2515,2021-036AZ,2026-07-02T14:05:14.444736,15.31711364,.0001117,53.1584,286.4802,98.4325,261.6803,0,U,48323,999,28564,.13878E-3,.3945E-4,0
STARLINK-2495,2021-036BB,2026-07-02T18:53:50.671392,15.31729347,.00013398,53.1600,285.6753,76.6794,283.4357,0,U,48325,999,28567,.25011957E-3,.7411E-4,0
STARLINK-2498,2021-036BC,2026-07-02T13:59:01.811904,15.31725421,.0001163,53.1583,286.5571,66.4738,293.6385,0,U,48326,999,28564,.85059E-3,.26143E-3,0
STARLINK-2502,2021-036BD,2026-07-02T13:52:18.147648,15.31721928,.0001215,53.1585,286.5842,93.4617,266.6523,0,U,48327,999,28564,.18951E-3,.5524E-4,0
STARLINK-2504,2021-036BE,2026-07-02T16:39:34.518528,15.31720203,.00010788,53.1593,285.9205,85.3124,274.8001,0,U,48328,999,28565,.16688563E-3,.482E-4,0
STARLINK-2510,2021-036BF,2026-07-02T18:07:18.931872,15.31729753,.00011599,53.1597,285.6330,75.4335,284.6795,0,U,48329,999,28567,.39263452E-3,.11849E-3,0
STARLINK-2501,2021-036BG,2026-07-02T19:07:48.654624,15.31732816,.00012489,53.1592,285.9330,75.7256,284.3884,0,U,48330,999,28567,.37442227E-3,.11283E-3,0
STARLINK-2514,2021-036BH,2026-07-02T16:37:03.045504,15.34659259,.00041941,53.1583,286.0294,331.9593,28.1183,0,U,48331,999,28566,.13256315E-2,.45062E-3,0
STARLINK-2518,2021-036BK,2026-07-02T16:19:56.557344,15.31719643,.0001034,53.1609,286.0341,55.6202,304.4897,0,U,48333,999,28566,.16614073E-3,.4797E-4,0
